{
  "type": "FeatureCollection",
  "features": [
    {
      "type": "Feature",
      "properties": {
        "norad_id": 36744,
        "name": "COMS 1",
        "group": "weather",
        "lat": 4.313221778141167,
        "lon": 173.89345501103455,
        "alt_km": 35787.586246789855,
        "timestamp": "2025-12-10T21:43:21.729175+00:00",
        "meta_object_name": "COMS 1",
        "meta_object_id": "2010-032A",
        "meta_epoch": "2025-12-10T14:40:38.875584",
        "meta_mean_motion": 1.00270612,
        "meta_eccentricity": 0.00011001,
        "meta_inclination": 4.3365,
        "meta_ra_of_asc_node": 78.02,
        "meta_arg_of_pericenter": 207.3502,
        "meta_mean_anomaly": 142.5495,
        "meta_ephemeris_type": 0,
        "meta_classification_type": "U",
        "meta_norad_cat_id": 36744,
        "meta_element_set_no": 999,
        "meta_rev_at_epoch": 4919,
        "meta_bstar": 0,
        "meta_mean_motion_dot": -3.4e-06,
        "meta_mean_motion_ddot": 0,
        "tle_line1": "1 36744U 10032A   25344.61156106 -.00000340  00000+0  00000+0 0  9990",
        "tle_line2": "2 36744   4.3365  78.0200 0001100 207.3502 142.5495  1.00270612 49197"
      },
      "geometry": {
        "type": "Point",
        "coordinates": [
          173.89345501103455,
          4.313221778141167
        ]
      }
    },
    {
      "type": "Feature",
      "properties": {
        "norad_id": 37214,
        "name": "FENGYUN 3B",
        "group": "weather",
        "lat": 54.88625119748198,
        "lon": 11.857824105414556,
        "alt_km": 828.1062515320928,
        "timestamp": "2025-12-10T21:43:21.729190+00:00",
        "meta_object_name": "FENGYUN 3B",
        "meta_object_id": "2010-059A",
        "meta_epoch": "2025-12-10T15:25:35.424768",
        "meta_mean_motion": 14.14789207,
        "meta_eccentricity": 0.00221844,
        "meta_inclination": 98.9904,
        "meta_ra_of_asc_node": 24.6049,
        "meta_arg_of_pericenter": 3.71,
        "meta_mean_anomaly": 156.636,
        "meta_ephemeris_type": 0,
        "meta_classification_type": "U",
        "meta_norad_cat_id": 37214,
        "meta_element_set_no": 999,
        "meta_rev_at_epoch": 78076,
        "meta_bstar": 0.00022365827,
        "meta_mean_motion_dot": 3.87e-06,
        "meta_mean_motion_ddot": 0,
        "tle_line1": "1 37214U 10059A   25344.64277112  .00000387  00000+0  22366-3 0  9999",
        "tle_line2": "2 37214  98.9904  24.6049 0022184   3.7100 156.6360 14.14789207780769"
      },
      "geometry": {
        "type": "Point",
        "coordinates": [
          11.857824105414556,
          54.88625119748198
        ]
      }
    },
    {
      "type": "Feature",
      "properties": {
        "norad_id": 37849,
        "name": "SUOMI NPP",
        "group": "weather",
        "lat": -44.869534919737134,
        "lon": 93.41618842986374,
        "alt_km": 834.0063383542147,
        "timestamp": "2025-12-10T21:43:21.729202+00:00",
        "meta_object_name": "SUOMI NPP",
        "meta_object_id": "2011-061A",
        "meta_epoch": "2025-12-10T15:35:20.359680",
        "meta_mean_motion": 14.1951326,
        "meta_eccentricity": 0.0002177,
        "meta_inclination": 98.7771,
        "meta_ra_of_asc_node": 282.0099,
        "meta_arg_of_pericenter": 123.8678,
        "meta_mean_anomaly": 236.2706,
        "meta_ephemeris_type": 0,
        "meta_classification_type": "U",
        "meta_norad_cat_id": 37849,
        "meta_element_set_no": 999,
        "meta_rev_at_epoch": 73169,
        "meta_bstar": 0.00011253994,
        "meta_mean_motion_dot": 1.93e-06,
        "meta_mean_motion_ddot": 0,
        "tle_line1": "1 37849U 11061A   25344.64954120  .00000193  00000+0  11254-3 0  9997",
        "tle_line2": "2 37849  98.7771 282.0099 0002177 123.8678 236.2706 14.19513260731698"
      },
      "geometry": {
        "type": "Point",
        "coordinates": [
          93.41618842986374,
          -44.869534919737134
        ]
      }
    },
    {
      "type": "Feature",
      "properties": {
        "norad_id": 38552,
        "name": "METEOSAT-10 (MSG-3)",
        "group": "weather",
        "lat": -1.137723778682475,
        "lon": 45.921360059848936,
        "alt_km": 35786.323104168376,
        "timestamp": "2025-12-10T21:43:21.729215+00:00",
        "meta_object_name": "METEOSAT-10 (MSG-3)",
        "meta_object_id": "2012-035B",
        "meta_epoch": "2025-12-09T20:25:24.031776",
        "meta_mean_motion": 1.00274082,
        "meta_eccentricity": 8.515e-05,
        "meta_inclination": 4.2224,
        "meta_ra_of_asc_node": 61.7294,
        "meta_arg_of_pericenter": 241.822,
        "meta_mean_anomaly": 81.7823,
        "meta_ephemeris_type": 0,
        "meta_classification_type": "U",
        "meta_norad_cat_id": 38552,
        "meta_element_set_no": 999,
        "meta_rev_at_epoch": 4895,
        "meta_bstar": 0,
        "meta_mean_motion_dot": -4e-08,
        "meta_mean_motion_ddot": 0,
        "tle_line1": "1 38552U 12035B   25343.85097259 -.00000004  00000+0  00000+0 0  9999",
        "tle_line2": "2 38552   4.2224  61.7294 0000851 241.8220  81.7823  1.00274082 48950"
      },
      "geometry": {
        "type": "Point",
        "coordinates": [
          45.921360059848936,
          -1.137723778682475
        ]
      }
    },
    {
      "type": "Feature",
      "properties": {
        "norad_id": 38771,
        "name": "METOP-B",
        "group": "weather",
        "lat": 63.73407167056645,
        "lon": 16.862253242576607,
        "alt_km": 814.0895703928627,
        "timestamp": "2025-12-10T21:43:21.729227+00:00",
        "meta_object_name": "METOP-B",
        "meta_object_id": "2012-049A",
        "meta_epoch": "2025-12-10T14:39:34.966368",
        "meta_mean_motion": 14.21407155,
        "meta_eccentricity": 0.0002822,
        "meta_inclination": 98.6802,
        "meta_ra_of_asc_node": 34.6057,
        "meta_arg_of_pericenter": 148.665,
        "meta_mean_anomaly": 211.4696,
        "meta_ephemeris_type": 0,
        "meta_classification_type": "U",
        "meta_norad_cat_id": 38771,
        "meta_element_set_no": 999,
        "meta_rev_at_epoch": 68647,
        "meta_bstar": 0.00011924289,
        "meta_mean_motion_dot": 2.17e-06,
        "meta_mean_motion_ddot": 0,
        "tle_line1": "1 38771U 12049A   25344.61082137  .00000217  00000+0  11924-3 0  9997",
        "tle_line2": "2 38771  98.6802  34.6057 0002822 148.6650 211.4696 14.21407155686470"
      },
      "geometry": {
        "type": "Point",
        "coordinates": [
          16.862253242576607,
          63.73407167056645
        ]
      }
    },
    {
      "type": "Feature",
      "properties": {
        "norad_id": 39216,
        "name": "INSAT-3D",
        "group": "weather",
        "lat": 1.4364156856615102,
        "lon": 175.2385023326925,
        "alt_km": 35784.278542950284,
        "timestamp": "2025-12-10T21:43:21.729238+00:00",
        "meta_object_name": "INSAT-3D",
        "meta_object_id": "2013-038B",
        "meta_epoch": "2025-12-10T13:42:38.672352",
        "meta_mean_motion": 1.00270831,
        "meta_eccentricity": 0.00015822,
        "meta_inclination": 1.4397,
        "meta_ra_of_asc_node": 85.0117,
        "meta_arg_of_pericenter": 163.3577,
        "meta_mean_anomaly": 166.3807,
        "meta_ephemeris_type": 0,
        "meta_classification_type": "U",
        "meta_norad_cat_id": 39216,
        "meta_element_set_no": 999,
        "meta_rev_at_epoch": 4518,
        "meta_bstar": 0,
        "meta_mean_motion_dot": -3.35e-06,
        "meta_mean_motion_ddot": 0,
        "tle_line1": "1 39216U 13038B   25344.57128093 -.00000335  00000+0  00000+0 0  9999",
        "tle_line2": "2 39216   1.4397  85.0117 0001582 163.3577 166.3807  1.00270831 45188"
      },
      "geometry": {
        "type": "Point",
        "coordinates": [
          175.2385023326925,
          1.4364156856615102
        ]
      }
    },
    {
      "type": "Feature",
      "properties": {
        "norad_id": 39260,
        "name": "FENGYUN 3C",
        "group": "weather",
        "lat": -10.01522745872043,
        "lon": -35.81688423178575,
        "alt_km": 852.7872674903174,
        "timestamp": "2025-12-10T21:43:21.729249+00:00",
        "meta_object_name": "FENGYUN 3C",
        "meta_object_id": "2013-052A",
        "meta_epoch": "2025-12-10T14:59:08.073600",
        "meta_mean_motion": 14.15695287,
        "meta_eccentricity": 0.00141659,
        "meta_inclination": 98.4761,
        "meta_ra_of_asc_node": 322.4071,
        "meta_arg_of_pericenter": 202.3053,
        "meta_mean_anomaly": 157.7508,
        "meta_ephemeris_type": 0,
        "meta_classification_type": "U",
        "meta_norad_cat_id": 39260,
        "meta_element_set_no": 999,
        "meta_rev_at_epoch": 63188,
        "meta_bstar": 0.00012510363,
        "meta_mean_motion_dot": 2.04e-06,
        "meta_mean_motion_ddot": 0,
        "tle_line1": "1 39260U 13052A   25344.62439900  .00000204  00000+0  12510-3 0  9999",
        "tle_line2": "2 39260  98.4761 322.4071 0014165 202.3053 157.7508 14.15695287631885"
      },
      "geometry": {
        "type": "Point",
        "coordinates": [
          -35.81688423178575,
          -10.01522745872043
        ]
      }
    }
  ]
}